ONEWEB-0140             
1 47286U 20100AE  26073.81673724  .00000376  00000+0  10110-2 0  9996
2 47286  87.9010   9.3711 0001784  84.3449 275.7883 13.12442233252315
ONEWEB-0141             
1 47287U 20100AF  26073.86233547  .00000023  00000+0  28612-4 0  9994
2 47287  87.9009   9.3678 0001777  68.4631 291.6687 13.12444336252308
ONEWEB-0142             
1 47288U 20100AG  26073.85074960 -.00000348  00000+0 -10033-2 0  9994
2 47288  87.9006   9.3949 0002080  68.3197 291.8152 13.12445133252294
ONEWEB-0143             
1 47289U 20100AH  26073.78454030 -.00000061  00000+0 -20503-3 0  9993
2 47289  87.9009   9.4041 0001798  77.4415 282.6915 13.12444580252268
ONEWEB-0144             
1 47290U 20100AJ  26073.83196987 -.00000225  00000+0 -66080-3 0  9997
2 47290  87.9014   9.3646 0002170  77.3517 282.7854 13.12440130252195
ONEWEB-0145             
1 47291U 20100AK  26073.87942595  .00000232  00000+0  60867-3 0  9999
2 47291  87.9004   9.3934 0001949  73.8447 286.2896 13.12444258252393
ONEWEB-0146             
1 47292U 20100AL  26073.87602115  .00000412  00000+0  11089-2 0  9992
2 47292  87.9010   9.3788 0001569  87.0177 273.1132 13.12442144252304
ONEWEB-0147             
1 47293U 20100AM  26073.84214191 -.00000373  00000+0 -10713-2 0  9994
2 47293  87.9012   9.3658 0002016  85.9369 274.1990 13.12443000252193
ONEWEB-0115             
1 48042U 21025A   26073.71549959  .00000230  00000+0  59541-3 0  9996
2 48042  87.9044 339.0149 0001648  78.7443 281.3871 13.13470451241199
ONEWEB-0152             
1 48043U 21025B   26073.95757455  .00000172  00000+0  43727-3 0  9999
2 48043  87.9032 338.9682 0001642  81.6662 278.4654 13.13470256241185
ONEWEB-0153             
1 48044U 21025C   26073.70703610  .00000093  00000+0  22102-3 0  9993
2 48044  87.9032 339.0228 0001804  76.4698 283.6632 13.13471210241146
ONEWEB-0154             
1 48045U 21025D   26073.70363818 -.00000025  00000+0 -10377-3 0  9994
2 48045  87.9034 339.0210 0001766  81.8194 278.3136 13.13472343241102
ONEWEB-0116             
1 48046U 21025E   26073.97111501 -.00000114  00000+0 -34839-3 0  9992
2 48046  87.9039 338.9569 0001604  81.8350 278.2961 13.13469876241289
ONEWEB-0150             
1 48047U 21025F   26073.71888516  .00000305  00000+0  80120-3 0  9996
2 48047  87.9042 339.0040 0001652  72.4537 287.6772 13.13470571241149
ONEWEB-0107             
1 48048U 21025G   26073.72058055  .00000362  00000+0  95544-3 0  9994
2 48048  87.9043 338.9989 0001965  72.0529 288.0814 13.13470430241129
ONEWEB-0101             
1 48049U 21025H   26073.68333492 -.00000244  00000+0 -70249-3 0  9997
2 48049  87.9031 339.0321 0001896  79.7835 280.3508 13.13470367241096
ONEWEB-0113             
1 48050U 21025J   26073.96877096  .00000056  00000+0  11866-3 0  9992
2 48050  87.9042 338.8941 0001451  87.6887 272.4408 13.13949782241236
