[{"OBJECT_NAME":"ONEWEB-0140","OBJECT_ID":"2020-100AE","EPOCH":"2026-03-14T19:36:06.097536","MEAN_MOTION":13.12442233,"ECCENTRICITY":0.00017844,"INCLINATION":87.901,"RA_OF_ASC_NODE":9.3711,"ARG_OF_PERICENTER":84.3449,"MEAN_ANOMALY":275.7883,"EPHEMERIS_TYPE":0,"CLASSIFICATION_TYPE":"U","NORAD_CAT_ID":47286,"ELEMENT_SET_NO":999,"REV_AT_EPOCH":25231,"BSTAR":0.0010110027,"MEAN_MOTION_DOT":3.76e-6,"MEAN_MOTION_DDOT":0},{"OBJECT_NAME":"ONEWEB-0141","OBJECT_ID":"2020-100AF","EPOCH":"2026-03-14T20:41:45.784608","MEAN_MOTION":13.12444336,"ECCENTRICITY":0.00017776,"INCLINATION":87.9009,"RA_OF_ASC_NODE":9.3678,"ARG_OF_PERICENTER":68.4631,"MEAN_ANOMALY":291.6687,"EPHEMERIS_TYPE":0,"CLASSIFICATION_TYPE":"U","NORAD_CAT_ID":47287,"ELEMENT_SET_NO":999,"REV_AT_EPOCH":25230,"BSTAR":2.8612243e-5,"MEAN_MOTION_DOT":2.3e-7,"MEAN_MOTION_DDOT":0},{"OBJECT_NAME":"ONEWEB-0142","OBJECT_ID":"2020-100AG","EPOCH":"2026-03-14T20:25:04.765440","MEAN_MOTION":13.12445133,"ECCENTRICITY":0.000208,"INCLINATION":87.9006,"RA_OF_ASC_NODE":9.3949,"ARG_OF_PERICENTER":68.3197,"MEAN_ANOMALY":291.8152,"EPHEMERIS_TYPE":0,"CLASSIFICATION_TYPE":"U","NORAD_CAT_ID":47288,"ELEMENT_SET_NO":999,"REV_AT_EPOCH":25229,"BSTAR":-0.0010033415,"MEAN_MOTION_DOT":-3.48e-6,"MEAN_MOTION_DDOT":0},{"OBJECT_NAME":"ONEWEB-0143","OBJECT_ID":"2020-100AH","EPOCH":"2026-03-14T18:49:44.281920","MEAN_MOTION":13.1244458,"ECCENTRICITY":0.00017984,"INCLINATION":87.9009,"RA_OF_ASC_NODE":9.4041,"ARG_OF_PERICENTER":77.4415,"MEAN_ANOMALY":282.6915,"EPHEMERIS_TYPE":0,"CLASSIFICATION_TYPE":"U","NORAD_CAT_ID":47289,"ELEMENT_SET_NO":999,"REV_AT_EPOCH":25226,"BSTAR":-0.00020503186,"MEAN_MOTION_DOT":-6.1e-7,"MEAN_MOTION_DDOT":0},{"OBJECT_NAME":"ONEWEB-0144","OBJECT_ID":"2020-100AJ","EPOCH":"2026-03-14T19:58:02.196768","MEAN_MOTION":13.1244013,"ECCENTRICITY":0.00021703,"INCLINATION":87.9014,"RA_OF_ASC_NODE":9.3646,"ARG_OF_PERICENTER":77.3517,"MEAN_ANOMALY":282.7854,"EPHEMERIS_TYPE":0,"CLASSIFICATION_TYPE":"U","NORAD_CAT_ID":47290,"ELEMENT_SET_NO":999,"REV_AT_EPOCH":25219,"BSTAR":-0.00066079692,"MEAN_MOTION_DOT":-2.25e-6,"MEAN_MOTION_DDOT":0},{"OBJECT_NAME":"ONEWEB-0145","OBJECT_ID":"2020-100AK","EPOCH":"2026-03-14T21:06:22.402080","MEAN_MOTION":13.12444258,"ECCENTRICITY":0.00019494,"INCLINATION":87.9004,"RA_OF_ASC_NODE":9.3934,"ARG_OF_PERICENTER":73.8447,"MEAN_ANOMALY":286.2896,"EPHEMERIS_TYPE":0,"CLASSIFICATION_TYPE":"U","NORAD_CAT_ID":47291,"ELEMENT_SET_NO":999,"REV_AT_EPOCH":25239,"BSTAR":0.00060866737,"MEAN_MOTION_DOT":2.32e-6,"MEAN_MOTION_DDOT":0},{"OBJECT_NAME":"ONEWEB-0146","OBJECT_ID":"2020-100AL","EPOCH":"2026-03-14T21:01:28.227360","MEAN_MOTION":13.12442144,"ECCENTRICITY":0.00015691,"INCLINATION":87.901,"RA_OF_ASC_NODE":9.3788,"ARG_OF_PERICENTER":87.0177,"MEAN_ANOMALY":273.1132,"EPHEMERIS_TYPE":0,"CLASSIFICATION_TYPE":"U","NORAD_CAT_ID":47292,"ELEMENT_SET_NO":999,"REV_AT_EPOCH":25230,"BSTAR":0.0011089211,"MEAN_MOTION_DOT":4.12e-6,"MEAN_MOTION_DDOT":0},{"OBJECT_NAME":"ONEWEB-0147","OBJECT_ID":"2020-100AM","EPOCH":"2026-03-14T20:12:41.061024","MEAN_MOTION":13.12443,"ECCENTRICITY":0.00020165,"INCLINATION":87.9012,"RA_OF_ASC_NODE":9.3658,"ARG_OF_PERICENTER":85.9369,"MEAN_ANOMALY":274.199,"EPHEMERIS_TYPE":0,"CLASSIFICATION_TYPE":"U","NORAD_CAT_ID":47293,"ELEMENT_SET_NO":999,"REV_AT_EPOCH":25219,"BSTAR":-0.0010712536,"MEAN_MOTION_DOT":-3.73e-6,"MEAN_MOTION_DDOT":0},{"OBJECT_NAME":"ONEWEB-0115","OBJECT_ID":"2021-025A","EPOCH":"2026-03-14T17:10:19.164576","MEAN_MOTION":13.13470451,"ECCENTRICITY":0.00016482,"INCLINATION":87.9044,"RA_OF_ASC_NODE":339.0149,"ARG_OF_PERICENTER":78.7443,"MEAN_ANOMALY":281.3871,"EPHEMERIS_TYPE":0,"CLASSIFICATION_TYPE":"U","NORAD_CAT_ID":48042,"ELEMENT_SET_NO":999,"REV_AT_EPOCH":24119,"BSTAR":0.00059540706,"MEAN_MOTION_DOT":2.3e-6,"MEAN_MOTION_DDOT":0},{"OBJECT_NAME":"ONEWEB-0152","OBJECT_ID":"2021-025B","EPOCH":"2026-03-14T22:58:54.441120","MEAN_MOTION":13.13470256,"ECCENTRICITY":0.00016428,"INCLINATION":87.9032,"RA_OF_ASC_NODE":338.9682,"ARG_OF_PERICENTER":81.6662,"MEAN_ANOMALY":278.4654,"EPHEMERIS_TYPE":0,"CLASSIFICATION_TYPE":"U","NORAD_CAT_ID":48043,"ELEMENT_SET_NO":999,"REV_AT_EPOCH":24118,"BSTAR":0.00043727403,"MEAN_MOTION_DOT":1.72e-6,"MEAN_MOTION_DDOT":0},{"OBJECT_NAME":"ONEWEB-0153","OBJECT_ID":"2021-025C","EPOCH":"2026-03-14T16:58:07.919040","MEAN_MOTION":13.1347121,"ECCENTRICITY":0.0001804,"INCLINATION":87.9032,"RA_OF_ASC_NODE":339.0228,"ARG_OF_PERICENTER":76.4698,"MEAN_ANOMALY":283.6632,"EPHEMERIS_TYPE":0,"CLASSIFICATION_TYPE":"U","NORAD_CAT_ID":48044,"ELEMENT_SET_NO":999,"REV_AT_EPOCH":24114,"BSTAR":0.00022102217,"MEAN_MOTION_DOT":9.3e-7,"MEAN_MOTION_DDOT":0},{"OBJECT_NAME":"ONEWEB-0154","OBJECT_ID":"2021-025D","EPOCH":"2026-03-14T16:53:14.338752","MEAN_MOTION":13.13472343,"ECCENTRICITY":0.00017666,"INCLINATION":87.9034,"RA_OF_ASC_NODE":339.021,"ARG_OF_PERICENTER":81.8194,"MEAN_ANOMALY":278.3136,"EPHEMERIS_TYPE":0,"CLASSIFICATION_TYPE":"U","NORAD_CAT_ID":48045,"ELEMENT_SET_NO":999,"REV_AT_EPOCH":24110,"BSTAR":-0.00010377281,"MEAN_MOTION_DOT":-2.5e-7,"MEAN_MOTION_DDOT":0},{"OBJECT_NAME":"ONEWEB-0116","OBJECT_ID":"2021-025E","EPOCH":"2026-03-14T23:18:24.336864","MEAN_MOTION":13.13469876,"ECCENTRICITY":0.00016047,"INCLINATION":87.9039,"RA_OF_ASC_NODE":338.9569,"ARG_OF_PERICENTER":81.835,"MEAN_ANOMALY":278.2961,"EPHEMERIS_TYPE":0,"CLASSIFICATION_TYPE":"U","NORAD_CAT_ID":48046,"ELEMENT_SET_NO":999,"REV_AT_EPOCH":24128,"BSTAR":-0.00034838504,"MEAN_MOTION_DOT":-1.14e-6,"MEAN_MOTION_DDOT":0},{"OBJECT_NAME":"ONEWEB-0150","OBJECT_ID":"2021-025F","EPOCH":"2026-03-14T17:15:11.677824","MEAN_MOTION":13.13470571,"ECCENTRICITY":0.00016523,"INCLINATION":87.9042,"RA_OF_ASC_NODE":339.004,"ARG_OF_PERICENTER":72.4537,"MEAN_ANOMALY":287.6772,"EPHEMERIS_TYPE":0,"CLASSIFICATION_TYPE":"U","NORAD_CAT_ID":48047,"ELEMENT_SET_NO":999,"REV_AT_EPOCH":24114,"BSTAR":0.00080120414,"MEAN_MOTION_DOT":3.05e-6,"MEAN_MOTION_DDOT":0},{"OBJECT_NAME":"ONEWEB-0107","OBJECT_ID":"2021-025G","EPOCH":"2026-03-14T17:17:38.159520","MEAN_MOTION":13.1347043,"ECCENTRICITY":0.00019659,"INCLINATION":87.9043,"RA_OF_ASC_NODE":338.9989,"ARG_OF_PERICENTER":72.0529,"MEAN_ANOMALY":288.0814,"EPHEMERIS_TYPE":0,"CLASSIFICATION_TYPE":"U","NORAD_CAT_ID":48048,"ELEMENT_SET_NO":999,"REV_AT_EPOCH":24112,"BSTAR":0.00095544364,"MEAN_MOTION_DOT":3.62e-6,"MEAN_MOTION_DDOT":0},{"OBJECT_NAME":"ONEWEB-0101","OBJECT_ID":"2021-025H","EPOCH":"2026-03-14T16:24:00.137088","MEAN_MOTION":13.13470367,"ECCENTRICITY":0.00018967,"INCLINATION":87.9031,"RA_OF_ASC_NODE":339.0321,"ARG_OF_PERICENTER":79.7835,"MEAN_ANOMALY":280.3508,"EPHEMERIS_TYPE":0,"CLASSIFICATION_TYPE":"U","NORAD_CAT_ID":48049,"ELEMENT_SET_NO":999,"REV_AT_EPOCH":24109,"BSTAR":-0.0007024914,"MEAN_MOTION_DOT":-2.44e-6,"MEAN_MOTION_DDOT":0},{"OBJECT_NAME":"ONEWEB-0113","OBJECT_ID":"2021-025J","EPOCH":"2026-03-14T23:15:01.810944","MEAN_MOTION":13.13949782,"ECCENTRICITY":0.00014518,"INCLINATION":87.9042,"RA_OF_ASC_NODE":338.8941,"ARG_OF_PERICENTER":87.6887,"MEAN_ANOMALY":272.4408,"EPHEMERIS_TYPE":0,"CLASSIFICATION_TYPE":"U","NORAD_CAT_ID":48050,"ELEMENT_SET_NO":999,"REV_AT_EPOCH":24123,"BSTAR":0.00011865535,"MEAN_MOTION_DOT":5.6e-7,"MEAN_MOTION_DDOT":0}]
